[{"OBJECT_ID":"1989-062B","OBJECT_NAME":"HIPPARCOS","NORAD_CAT_ID":"20169","OBJECT_TYPE":"PAYLOAD","PERIOD":"636.778","INCLINATION":"6.8507","APOGEE":"35751.016","PERIGEE":"528.815","ECCENTRICITY":"0.7182912","MEAN_MOTION":"2.26138155","TLE_LINE1":"1 20169U 89062B   16239.29210814 -.00000024  00000-0  25888-3 0  9992","TLE_LINE2":"2 20169   6.8507 268.7445 7182912 130.2828 318.4179  2.26138155188256","LAUNCH_DATE":"1989-08-08","LAUNCH_SITE":"FRENCH GUIANA","OWNER":"EUROPEAN SPACE AGENCY","ORBIT_TYPE":"Highly Elliptical Orbit","OPERATIONAL_STATUS":"Nonoperational"},{"OBJECT_ID":"1989-062C","OBJECT_NAME":"ARIANE 44LP R/B","NORAD_CAT_ID":"20170","OBJECT_TYPE":"ROCKET BODY","PERIOD":"588.876","INCLINATION":"7.3085","APOGEE":"33399.857","PERIGEE":"388.872","ECCENTRICITY":"0.7092273","MEAN_MOTION":"2.44533405","TLE_LINE1":"1 20170U 89062C   16238.43488968  .00000155  00000-0  19338-3 0  9993","TLE_LINE2":"2 20170   7.3085 267.4700 7092273 114.4184 331.5484  2.44533405226754","LAUNCH_DATE":"1989-08-08","LAUNCH_SITE":"FRENCH GUIANA","OWNER":"FRANCE","ORBIT_TYPE":"Highly Elliptical Orbit","OPERATIONAL_STATUS":"N/A, derelict rocket body"},{"OBJECT_ID":"1961-015MK","OBJECT_NAME":"THOR ABLESTAR DEB","NORAD_CAT_ID":"20174","OBJECT_TYPE":"DEBRIS","PERIOD":"108.601","INCLINATION":"67.0627","APOGEE":"1531.991","PERIGEE":"792.175","ECCENTRICITY":"0.049058","MEAN_MOTION":"13.25949044","TLE_LINE1":"1 20174U 61015MK  16238.13535961  .00000170  00000-0  27598-3 0  9992","TLE_LINE2":"2 20174  67.0627 154.8650 0490580  24.3831  36.4438 13.25949044240173","LAUNCH_DATE":"1961-06-29","LAUNCH_SITE":"AIR FORCE EASTERN TEST RANGE","OWNER":"UNITED STATES OF AMERICA","ORBIT_TYPE":"Low Earth Orbit","OPERATIONAL_STATUS":"N/A, space debris"},{"OBJECT_ID":"1989-064A","OBJECT_NAME":"NAVSTAR 15 (USA 42)","NORAD_CAT_ID":"20185","OBJECT_TYPE":"PAYLOAD","PERIOD":"773.838","INCLINATION":"54.0613","APOGEE":"21581.773","PERIGEE":"21503.455","ECCENTRICITY":"0.0014025","MEAN_MOTION":"1.86085335","TLE_LINE1":"1 20185U 89064A   16239.50199664  .00000041  00000-0  00000+0 0  9998","TLE_LINE2":"2 20185  54.0613 212.1674 0014025 269.7352 177.2781  1.86085335189545","LAUNCH_DATE":"1989-08-18","LAUNCH_SITE":"AIR FORCE EASTERN TEST RANGE","OWNER":"UNITED STATES OF AMERICA","ORBIT_TYPE":"Middle Earth Orbit","OPERATIONAL_STATUS":"Nonoperational"},{"OBJECT_ID":"1989-067A","OBJECT_NAME":"SIRIUS W (MARCOPOLO 1)","NORAD_CAT_ID":"20193","OBJECT_TYPE":"PAYLOAD","PERIOD":"1451.795","INCLINATION":"13.395","APOGEE":"36108.905","PERIGEE":"36077.731","ECCENTRICITY":"0.000367","MEAN_MOTION":"0.99187529","TLE_LINE1":"1 20193U 89067A   16238.81438253 -.00000295 +00000-0 +00000-0 0  9996","TLE_LINE2":"2 20193 013.3950 030.3362 0003670 267.5351 094.9014 00.99187529011290","LAUNCH_DATE":"1989-08-27","LAUNCH_SITE":"AIR FORCE EASTERN TEST RANGE","OWNER":"SWEDEN","ORBIT_TYPE":"Geosynchronous","OPERATIONAL_STATUS":"Unknown"},{"OBJECT_ID":"1989-068A","OBJECT_NAME":"COSMOS 2037","NORAD_CAT_ID":"20196","OBJECT_TYPE":"PAYLOAD","PERIOD":"116.074","INCLINATION":"73.5648","APOGEE":"1524.560","PERIGEE":"1483.719","ECCENTRICITY":"0.0025907","MEAN_MOTION":"12.40581681","TLE_LINE1":"1 20196U 89068A   16238.92360705 -.00000016 +00000-0 +91413-5 0  9992","TLE_LINE2":"2 20196 073.5648 070.5906 0025907 261.5228 205.4942 12.40581681221680","LAUNCH_DATE":"1989-08-28","LAUNCH_SITE":"PLESETSK MISSILE AND SPACE COMPLEX","OWNER":"COMMONWEALTH OF INDEPENDENT STATES","ORBIT_TYPE":"Low Earth Orbit","OPERATIONAL_STATUS":"Unknown"},{"OBJECT_ID":"1989-068B","OBJECT_NAME":"SL-14 R/B","NORAD_CAT_ID":"20197","OBJECT_TYPE":"ROCKET BODY","PERIOD":"116.058","INCLINATION":"73.5628","APOGEE":"1522.949","PERIGEE":"1483.879","ECCENTRICITY":"0.0024786","MEAN_MOTION":"12.4075299","TLE_LINE1":"1 20197U 89068B   16239.53211579 -.00000021  00000-0 -24869-4 0  9992","TLE_LINE2":"2 20197  73.5628  63.8367 0024786 257.1056 163.4830 12.40752990223032","LAUNCH_DATE":"1989-08-28","LAUNCH_SITE":"PLESETSK MISSILE AND SPACE COMPLEX","OWNER":"COMMONWEALTH OF INDEPENDENT STATES","ORBIT_TYPE":"Low Earth Orbit","OPERATIONAL_STATUS":"N/A, derelict rocket body"},{"OBJECT_ID":"1989-070A","OBJECT_NAME":"HIMAWARI 4 (GMS 4)","NORAD_CAT_ID":"20217","OBJECT_TYPE":"PAYLOAD","PERIOD":"1478.244","INCLINATION":"15.6125","APOGEE":"36795.453","PERIGEE":"36419.757","ECCENTRICITY":"0.00437","MEAN_MOTION":"0.97412826","TLE_LINE1":"1 20217U 89070A   16236.10795265 -.00000181  00000-0  00000+0 0  9999","TLE_LINE2":"2 20217  15.6125  16.9000 0043700  58.5759 286.7079  0.97412826 97614","LAUNCH_DATE":"1989-09-05","LAUNCH_SITE":"TANEGASHIMA SPACE CENTER","OWNER":"JAPAN","ORBIT_TYPE":"Unclassified","OPERATIONAL_STATUS":"Nonoperational"},{"OBJECT_ID":"1989-053C","OBJECT_NAME":"ARIANE 3 DEB","NORAD_CAT_ID":"20229","OBJECT_TYPE":"DEBRIS","PERIOD":"624.159","INCLINATION":"6.2624","APOGEE":"35208.194","PERIGEE":"421.636","ECCENTRICITY":"0.718937","MEAN_MOTION":"2.30710214","TLE_LINE1":"1 20229U 89053C   16239.55404363  .00000007  00000-0  74358-3 0  9998","TLE_LINE2":"2 20229   6.2624 104.4118 7189370  73.6846 349.1252  2.30710214216145","LAUNCH_DATE":"1989-07-12","LAUNCH_SITE":"FRENCH GUIANA","OWNER":"FRANCE","ORBIT_TYPE":"Highly Elliptical Orbit","OPERATIONAL_STATUS":"N/A, space debris"},{"OBJECT_ID":"1989-070B","OBJECT_NAME":"H-1 R/B(1)","NORAD_CAT_ID":"20230","OBJECT_TYPE":"ROCKET BODY","PERIOD":"157.543","INCLINATION":"28.2171","APOGEE":"6383.306","PERIGEE":"185.584","ECCENTRICITY":"0.3207074","MEAN_MOTION":"9.14035576","TLE_LINE1":"1 20230U 89070B   16239.53082789  .00191635 -39266-6  10192-2 0  9997","TLE_LINE2":"2 20230  28.2171  66.6883 3207074 139.8351 248.9602  9.14035576482027","LAUNCH_DATE":"1989-09-05","LAUNCH_SITE":"TANEGASHIMA SPACE CENTER","OWNER":"JAPAN","ORBIT_TYPE":"Highly Elliptical Orbit","OPERATIONAL_STATUS":"N/A, derelict rocket body"},{"OBJECT_ID":"1989-074A","OBJECT_NAME":"COSMOS 2038","NORAD_CAT_ID":"20232","OBJECT_TYPE":"PAYLOAD","PERIOD":"113.802","INCLINATION":"82.5776","APOGEE":"1409.197","PERIGEE":"1392.679","ECCENTRICITY":"0.0010617","MEAN_MOTION":"12.65350719","TLE_LINE1":"1 20232U 89074A   16238.79792527 +.00000007 +00000-0 -16880-4 0  9990","TLE_LINE2":"2 20232 082.5776 329.5644 0010617 300.7158 179.5056 12.65350719218382","LAUNCH_DATE":"1989-09-14","LAUNCH_SITE":"PLESETSK MISSILE AND SPACE COMPLEX","OWNER":"COMMONWEALTH OF INDEPENDENT STATES","ORBIT_TYPE":"Low Earth Orbit","OPERATIONAL_STATUS":"Unknown"},{"OBJECT_ID":"1989-074B","OBJECT_NAME":"COSMOS 2039","NORAD_CAT_ID":"20233","OBJECT_TYPE":"PAYLOAD","PERIOD":"113.727","INCLINATION":"82.5834","APOGEE":"1408.529","PERIGEE":"1386.528","ECCENTRICITY":"0.0014147","MEAN_MOTION":"12.66183108","TLE_LINE1":"1 20233U 89074B   16238.76675095  .00000008  00000-0 -13438-4 0  9995","TLE_LINE2":"2 20233  82.5834 325.7512 0014147 250.3298 226.2376 12.66183108245468","LAUNCH_DATE":"1989-09-14","LAUNCH_SITE":"PLESETSK MISSILE AND SPACE COMPLEX","OWNER":"COMMONWEALTH OF INDEPENDENT STATES","ORBIT_TYPE":"Low Earth Orbit","OPERATIONAL_STATUS":"Unknown"},{"OBJECT_ID":"1989-074C","OBJECT_NAME":"COSMOS 2040","NORAD_CAT_ID":"20234","OBJECT_TYPE":"PAYLOAD","PERIOD":"114.054","INCLINATION":"82.5883","APOGEE":"1416.327","PERIGEE":"1408.560","ECCENTRICITY":"0.0004985","MEAN_MOTION":"12.62548842","TLE_LINE1":"1 20234U 89074C   16238.88446303  .00000044  00000-0  18342-3 0  9994","TLE_LINE2":"2 20234  82.5883  12.0161 0004985 156.4119 320.6693 12.62548842241920","LAUNCH_DATE":"1989-09-14","LAUNCH_SITE":"PLESETSK MISSILE AND SPACE COMPLEX","OWNER":"COMMONWEALTH OF INDEPENDENT STATES","ORBIT_TYPE":"Low Earth Orbit","OPERATIONAL_STATUS":"Unknown"},{"OBJECT_ID":"1989-074D","OBJECT_NAME":"COSMOS 2041","NORAD_CAT_ID":"20235","OBJECT_TYPE":"PAYLOAD","PERIOD":"113.854","INCLINATION":"82.5877","APOGEE":"1409.615","PERIGEE":"1397.043","ECCENTRICITY":"0.0008078","MEAN_MOTION":"12.64767618","TLE_LINE1":"1 20235U 89074D   16238.84370596 +.00000019 +00000-0 +46772-4 0  9992","TLE_LINE2":"2 20235 082.5877 344.3536 0008078 332.7602 146.2403 12.64767618243866","LAUNCH_DATE":"1989-09-14","LAUNCH_SITE":"PLESETSK MISSILE AND SPACE COMPLEX","OWNER":"COMMONWEALTH OF INDEPENDENT STATES","ORBIT_TYPE":"Low Earth Orbit","OPERATIONAL_STATUS":"Unknown"},{"OBJECT_ID":"1989-074E","OBJECT_NAME":"COSMOS 2042","NORAD_CAT_ID":"20236","OBJECT_TYPE":"PAYLOAD","PERIOD":"113.910","INCLINATION":"82.5859","APOGEE":"1409.764","PERIGEE":"1401.978","ECCENTRICITY":"0.0005001","MEAN_MOTION":"12.64148214","TLE_LINE1":"1 20236U 89074E   16238.83556663 +.00000006 +00000-0 -25609-4 0  9996","TLE_LINE2":"2 20236 082.5859 350.8154 0005001 002.4013 116.4832 12.64148214359021","LAUNCH_DATE":"1989-09-14","LAUNCH_SITE":"PLESETSK MISSILE AND SPACE COMPLEX","OWNER":"COMMONWEALTH OF INDEPENDENT STATES","ORBIT_TYPE":"Low Earth Orbit","OPERATIONAL_STATUS":"Unknown"},{"OBJECT_ID":"1989-074F","OBJECT_NAME":"COSMOS 2043","NORAD_CAT_ID":"20237","OBJECT_TYPE":"PAYLOAD","PERIOD":"113.974","INCLINATION":"82.5805","APOGEE":"1412.058","PERIGEE":"1405.508","ECCENTRICITY":"0.0004206","MEAN_MOTION":"12.63439119","TLE_LINE1":"1 20237U 89074F   16239.17879392  .00000025  00000-0  76751-4 0  9996","TLE_LINE2":"2 20237  82.5805 354.2374 0004206  77.5109 353.9553 12.63439119242799","LAUNCH_DATE":"1989-09-14","LAUNCH_SITE":"PLESETSK MISSILE AND SPACE COMPLEX","OWNER":"COMMONWEALTH OF INDEPENDENT STATES","ORBIT_TYPE":"Low Earth Orbit","OPERATIONAL_STATUS":"Unknown"},{"OBJECT_ID":"1989-074G","OBJECT_NAME":"SL-14 R/B","NORAD_CAT_ID":"20238","OBJECT_TYPE":"ROCKET BODY","PERIOD":"114.714","INCLINATION":"82.5897","APOGEE":"1474.029","PERIGEE":"1410.821","ECCENTRICITY":"0.0040411","MEAN_MOTION":"12.55295448","TLE_LINE1":"1 20238U 89074G   16238.70969867  .00000011  00000-0  78998-6 0  9994","TLE_LINE2":"2 20238  82.5897 100.3191 0040411 146.5346 274.1565 12.55295448234857","LAUNCH_DATE":"1989-09-14","LAUNCH_SITE":"PLESETSK MISSILE AND SPACE COMPLEX","OWNER":"COMMONWEALTH OF INDEPENDENT STATES","ORBIT_TYPE":"Low Earth Orbit","OPERATIONAL_STATUS":"N/A, derelict rocket body"}]